0 OPS 7613 (P/L 5)
1  4247U 69082F   23286.56478670  .00000142  00000-0  14260-3 0  9999
2  4247  70.0172  30.4277 0022476 317.7921  42.1454 13.95676225750424
0 COSMOS 505
1  6118U 72057B   23286.56183249 -.00000007  00000-0  56176-4 0  9993
2  6118  74.0247  96.5871 0092968 261.8858 156.2837 12.59793431356202
0 COSMOS 1124
1 11509U 79077A   23269.95237443  .99999999  11589-4  28110-2 0  9999
2 11509  62.1387  28.3999 0513570  62.1002  46.3855 15.41297851325135
0 COSMOS 1891
1 18402U 87087A   23286.53433654  .00000118  00000-0  10882-3 0  9991
2 18402  82.9241 219.8518 0050466   1.1906 358.9360 13.73777616804571
0 IRIDIUM 82
1 25467U 98051A   23286.57337703  .00017229  00000-0  10072-2 0  9996
2 25467  86.3967  42.1841 0147684  45.9651 315.3637 15.02912749331213
0 COSMOS 2369
1 26069U 00006A   23286.20286028 -.00000102  00000-0 -28669-4 0  9998
2 26069  70.9966 201.4937 0013085 321.1016  38.9163 14.13582992222380
0 BIRD 2
1 26959U 01049C   23284.08619489  .06935024  27864-5  38094-3 0  9997
2 26959  97.7693  66.3671 0010118 271.3565  88.6575 16.41532284528148
0 RITE TARGET 1
1 28454U 02056F   23285.33506667  .00002135  00000-0  78304-3 0  9998
2 28454  98.6241 237.4677 0008957 219.2427 140.8109 14.33825922 63693
0 AGILE
1 31135U 07013A   23285.60621397  .00093818  00000-0  88604-3 0  9996
2 31135   2.4678 335.9982 0005879 230.1408 129.8129 15.64932428919159
0 SHIJIAN 6 03B (SJ-6 03B)
1 33409U 08053B   23276.86245466  .00002771  00000-0  24434-3 0  9993
2 33409  97.8703 267.3653 0016800  97.6387  16.0654 14.97168199814631
0 UWE-2
1 35934U 09051D   23285.41255398  .00001744  00000-0  39742-3 0  9990
2 35934  98.5114 156.0023 0007204  36.0533 324.1149 14.57142885746156
0 SERVIS 2
1 36588U 10023A   23286.55066000  .00000024  00000-0  18024-3 0  9993
2 36588 100.4301 112.4274 0017255 344.8327  83.2567 13.15958458642241
0 PICARD
1 36598U 10028A   23286.52885336  .00000864  00000-0  22832-3 0  9991
2 36598  98.3027 115.6491 0001350  92.0975 268.0374 14.51289750705587
0 AISSAT 1
1 36797U 10035C   23286.51743546  .00004793  00000-0  51029-3 0  9990
2 36797  98.2138 133.7476 0011464  41.6223 318.5864 14.89387583718412
0 GLOBALSTAR M075
1 37192U 10054E   23285.67058306 -.00000109  00000-0 -29879-4 0  9998
2 37192  51.9935 249.5617 0000636  51.7684 120.0897 12.62254204598520
0 JUGNU
1 37839U 11058B   23285.62337362  .00000798  00000-0  28058-3 0  9997
2 37839  19.9599 130.3860 0018835  74.4777 321.8237 14.13029684620525
0 GLOBALSTAR M084
1 38040U 11080A   23286.49442734 -.00000071  00000-0  18554-3 0  9998
2 38040  51.9987 113.7346 0001053  99.5068 277.9021 12.62266905545570
0 SDS-4
1 38339U 12025C   23286.51414631  .00002404  00000-0  39104-3 0  9992
2 38339  98.1942   0.4854 0007507 168.3935 191.7447 14.71989217612030
0 EXACTVIEW-1
1 38709U 12039C   23286.48968720  .00000381  00000-0  18487-3 0  9990
2 38709  98.9647   8.6226 0011954 107.8101 252.4382 14.24300055583493
0 AEROCUBE 4.5B
1 38768U 12048L   23286.49208467  .00021975  00000-0  11632-2 0  9997
2 38768  64.6640 325.2898 0085980 103.1550 257.9183 15.12255833223830
0 GLOBALSTAR M095
1 39077U 13005F   23286.54328593 -.00000088  00000-0  85849-4 0  9990
2 39077  51.9826  18.3172 0000194 350.7703   9.3160 12.62269368492762
0 DOVE 2
1 39132U 13015C   23286.19163163  .00011248  00000-0  58774-3 0  9999
2 39132  64.8711 131.4016 0019838 228.8918 131.0495 15.16088091576774
0 GONETS M 07
1 39251U 13048C   23286.52494495  .00000025  00000-0  10858-3 0  9991
2 39251  82.4884 235.1964 0016440 181.6305 178.4723 12.42889315457567
0 CUSAT 2/FALCON 9
1 39271U 13055G   23286.52516652  .00054028 -35656-6  85749-3 0  9996
2 39271  80.9498  11.7812 0402922  40.6256 322.4288 14.95387073528061
0 UNISAT 5
1 39421U 13066F   23286.47703893  .00007148  00000-0  70522-3 0  9996
2 39421  97.5501 262.4008 0030030 133.7940 226.5771 14.91935234537122
0 CINEMA 3
1 39426U 13066L   23286.52539060  .00003364  00000-0  50140-3 0  9990
2 39426  97.8301 212.1121 0101209 126.5489 234.5088 14.72048951530551
0 DOVE 3
1 39429U 13066P   23286.51405920  .00008179  00000-0  13259-2 0  9997
2 39429  97.7833 179.7090 0134703 289.3873  69.2813 14.65544987527452
0 PUCP-SAT 1
1 39442U 13066AC  23286.51361251  .00014495  00000-0  12153-2 0  9990
2 39442  97.4857 274.0466 0029814  78.2648 282.1917 14.98132909536978
0 COSMOS 2499
1 39765U 14028E   23286.53194036  .00000013  00000-0 -12504-5 0  9999
2 39765  82.4535 192.1011 0232074 136.7026 225.2577 12.82863690439884
0 FLOCK 1C 11
1 40033U 14033Z   23286.48815785  .00029307  00000-0  20883-2 0  9992
2 40033  98.1035 261.1469 0011357 216.4148 143.6305 15.04487839507058
0 FLOCK 1C 6
1 40036U 14033AC  23286.50078163  .00032623  00000-0  23076-2 0  9991
2 40036  98.0606 255.4016 0001501 255.6463 104.4595 15.04785985506815
0 FLOCK 1C 8
1 40040U 14033AG  23286.53304486  .00033292  00000-0  20371-2 0  9997
2 40040  98.0979 271.9730 0010502 191.9831 168.1149 15.10100585507469
0 VELOX 1
1 40057U 14034E   23286.52801734  .00007911  00000-0  97950-3 0  9990
2 40057  98.3641 124.9779 0008758 217.6955 142.3644 14.82989111500969
0 UKUBE 1
1 40074U 14037F   23286.46551052  .00010033  00000-0  10549-2 0  9997
2 40074  98.3355 197.1944 0004605 141.5252 218.6293 14.89640905501856
0 SJ-11-07
1 40261U 14059A   23286.53087837  .00001546  00000-0  32232-3 0  9995
2 40261  98.0946   4.5014 0010837 351.2715   8.8295 14.61297140482010
0 YAOGAN 25A
1 40338U 14080A   23286.53485169  .00000047  00000-0  18316-3 0  9996
2 40338  63.3953 307.5601 0279140   4.9550 355.4136 13.45267047434330
0 COSMOS 2502
1 40358U 14086A   23286.53520456  .00000109  00000-0  13058-3 0  9990
2 40358  67.1514 227.1066 0008413 267.1054  92.9069 13.97567426449036
0 GRIFEX
1 40379U 15003D   23286.46945856  .00108121  00000-0  15290-2 0  9992
2 40379  99.0826 252.9206 0059721 216.4118 143.3062 15.54037846481669
0 LEMUR 2 JOEL
1 40932U 15052C   23285.09672174  .00009380  00000-0  10517-2 0  9993
2 40932   6.0080 281.6675 0013495 254.1148 105.7492 14.82603411434982
0 LEMUR 2 CHRIS
1 40933U 15052D   23285.54582382  .00009791  00000-0  10938-2 0  9998
2 40933   6.0063 273.4551 0013990 270.9872  88.8653 14.82873078 61902
0 NUSAT 2
1 41558U 16033C   23277.25834171  .16939764  26230-5  17999-3 0  9999
2 41558  97.4059  41.3631 0010829 262.8032  97.2042 16.50276834411181
0 BEESAT 4
1 41619U 16040W   23266.20301408  .10242607  23765-5  10219-2 0  9994
2 41619  97.1197 318.8504 0010645 257.6025 102.4083 16.38035722392312
0 SJ 16-02
1 41634U 16043A   23286.53590840  .00002051  00000-0  22580-3 0  9995
2 41634  75.0014 322.2503 0009208 259.9084 100.1064 14.88086889395458
0 INS-1A
1 41949U 17008B   23273.05802359  .15929182  24401-5  29377-3 0  9996
2 41949  97.1617 337.8334 0012978 265.2244  94.7577 16.46643497369460
0 INS-1B
1 41954U 17008G   23284.31341033  .16929385  24410-5  25895-3 0  9997
2 41954  97.1578 348.7024 0014851 257.8197 102.1444 16.47540507371138
0 SENTINEL 2B
1 42063U 17013A   23286.51522799  .00000391  00000-0  16586-3 0  9990
2 42063  98.5684 359.3357 0001081  94.2520 265.8786 14.30815773344848
0 HXMT
1 42758U 17034A   23286.49419332  .00013121  00000-0  72971-3 0  9994
2 42758  43.0148 206.1586 0002875  27.3099 332.7898 15.13571056349288
0 LEMUR 2 LUCYBRYCE
1 42773U 17036J   23264.05391895  .09721471  23555-5  15649-2 0  9990
2 42773  97.1029 304.9691 0008950 248.1619 111.8726 16.33608385348057
0 SUCHAI
1 42788U 17036Z   23278.90222119  .18188609  24489-5  22826-3 0  9990
2 42788  97.0954 322.8452 0011132 248.8258 111.1858 16.49176567350708
0 IRIDIUM 120
1 42805U 17039C   23286.49799777  .00000690  00000-0  23937-3 0  9991
2 42805  86.4025  10.6333 0002070  91.9180 268.2253 14.34218105331047
0 TECHNOSAT
1 42829U 17042E   23286.54023388  .00006162  00000-0  57642-3 0  9995
2 42829  97.3831 116.9417 0013031 181.4190 178.6996 14.94372695340169
0 LEMUR 2 MONSON
1 42839U 17042Q   23286.50194295  .00012920  00000-0  10839-2 0  9993
2 42839  97.3845 122.2124 0011326 160.9975 199.1673 14.98434191340443
0 LEMUR 2 PETERG
1 42841U 17042S   23286.51533984  .00011972  00000-0  10056-2 0  9996
2 42841  97.3886 123.9536 0011147 158.3532 201.8165 14.98408761340516
0 CORVUS BC1
1 42847U 17042Y   23286.50947594  .00005665  00000-0  51480-3 0  9996
2 42847  97.3787 121.1550 0008665 161.8114 198.3420 14.95581216340411
0 ORS 5 SENSORSAT
1 42921U 17050A   23285.63924762  .00005152  00000-0  39874-3 0  9997
2 42921   0.0473 203.8011 0011919 298.4863 217.7962 14.93938775334279
0 IRIDIUM 100
1 42956U 17061B   23286.49849856  .00000816  00000-0  28415-3 0  9993
2 42956  86.3936  73.7844 0002074  88.7357 271.4076 14.34219927314666
0 IRIDIUM 129
1 42958U 17061D   23286.49215419  .00001290  00000-0  45338-3 0  9997
2 42958  86.3933  73.8413 0001888  85.9138 274.2273 14.34215197314661
0 IRIDIUM 107
1 42960U 17061F   23286.47947375  .00000884  00000-0  30873-3 0  9997
2 42960  86.3937  73.8528 0001787  89.2188 270.9212 14.34219063314690
0 IRIDIUM 132
1 42961U 17061G   23286.48581569  .00000691  00000-0  23979-3 0  9993
2 42961  86.3935  73.8365 0001938  88.4804 271.6613 14.34216866314682
0 IRIDIUM 125
1 42964U 17061K   23286.51118337  .00000800  00000-0  27870-3 0  9995
2 42964  86.3940  73.9175 0001897  84.9986 275.1426 14.34219956314726
0 IRIDIUM 131
1 43079U 17083K   23286.52336756  .00000658  00000-0  22795-3 0  9997
2 43079  86.4035  10.7214 0002110  90.6951 269.4487 14.34217706303977
0 YAOGAN-30 J
1 43083U 17085C   23286.49388446  .00006198  00000-0  58524-3 0  9997
2 43083  34.9964 308.4618 0005671 272.1653  87.8403 14.93124316316071
0 CARBONITE 2
1 43115U 18004E   23286.16549906  .00016362  00000-0  50584-3 0  9991
2 43115  97.3038 354.2530 0009263  90.2514 269.9790 15.33543103319833
0 PICSAT
1 43132U 18004X   23274.90669177  .16535587  25409-5  24982-3 0  9992
2 43132  97.2902   3.7671 0010678 260.9850  99.0246 16.48076850319334
0 CICERO 7
1 43143U 18004AJ  23286.19803271  .00306348  00000-0  15966-2 0  9993
2 43143  97.3140  17.3525 0001634 296.9569  63.1531 15.80085683321205
